[
    {
        "Altitude(m)": 560079.8719816668,
        "Argument of Periapsis(deg)": 0.019868973332140504,
        "Eccentricity": 0.0,
        "Inclination(deg)": 53.0,
        "Latitude(deg)": -23.503493257562436,
        "Longitude(deg)": -151.4014612081852,
        "Mean Anomaly(deg)": -29.725121397267213,
        "RAAN(deg)": 329.97043010558406,
        "Satellite Name": "Starlink Shell 1 1470",
        "Satellite Number": 1470,
        "Semi-Major Axis(m)": 6931778.249405717,
        "Time(s)": 570
    },
    {
        "Altitude(m)": 559913.7506242627,
        "Argument of Periapsis(deg)": 0.02021755181165174,
        "Eccentricity": 0.0,
        "Inclination(deg)": 53.0,
        "Latitude(deg)": -23.027788350761803,
        "Longitude(deg)": -150.99753737446852,
        "Mean Anomaly(deg)": -29.098290193710515,
        "RAAN(deg)": 329.96991133550654,
        "Satellite Name": "Starlink Shell 1 1470",
        "Satellite Number": 1470,
        "Semi-Major Axis(m)": 6931778.249405717,
        "Time(s)": 580
    },
    {
        "Altitude(m)": 559748.7357343413,
        "Argument of Periapsis(deg)": 0.020566130291162974,
        "Eccentricity": 0.0,
        "Inclination(deg)": 53.0,
        "Latitude(deg)": -22.55079673416136,
        "Longitude(deg)": -150.596714918759,
        "Mean Anomaly(deg)": -28.471458990153767,
        "RAAN(deg)": 329.96939256542913,
        "Satellite Name": "Starlink Shell 1 1470",
        "Satellite Number": 1470,
        "Semi-Major Axis(m)": 6931778.249405717,
        "Time(s)": 590
    },
    {
        "Altitude(m)": 559584.8860699111,
        "Argument of Periapsis(deg)": 0.020914708770674213,
        "Eccentricity": 0.0,
        "Inclination(deg)": 53.0,
        "Latitude(deg)": -22.072555605897637,
        "Longitude(deg)": -150.1989092807918,
        "Mean Anomaly(deg)": -27.844627786597023,
        "RAAN(deg)": 329.9688737953516,
        "Satellite Name": "Starlink Shell 1 1470",
        "Satellite Number": 1470,
        "Semi-Major Axis(m)": 6931778.249405717,
        "Time(s)": 600
    },
    {
        "Altitude(m)": 559422.2597207099,
        "Argument of Periapsis(deg)": 0.021263287250185448,
        "Eccentricity": 0.0,
        "Inclination(deg)": 53.0,
        "Latitude(deg)": -21.593101456552574,
        "Longitude(deg)": -149.80403705763862,
        "Mean Anomaly(deg)": -27.217796583040325,
        "RAAN(deg)": 329.9683550252741,
        "Satellite Name": "Starlink Shell 1 1470",
        "Satellite Number": 1470,
        "Semi-Major Axis(m)": 6931778.249405717,
        "Time(s)": 610
    },
    {
        "Altitude(m)": 559260.9140822211,
        "Argument of Periapsis(deg)": 0.021611865729696686,
        "Eccentricity": 0.0,
        "Inclination(deg)": 53.0,
        "Latitude(deg)": -21.112470092520837,
        "Longitude(deg)": -149.41201547829112,
        "Mean Anomaly(deg)": -26.590965379483634,
        "RAAN(deg)": 329.9678362551967,
        "Satellite Name": "Starlink Shell 1 1470",
        "Satellite Number": 1470,
        "Semi-Major Axis(m)": 6931778.249405717,
        "Time(s)": 620
    },
    {
        "Altitude(m)": 559100.9058300484,
        "Argument of Periapsis(deg)": 0.02196044420920792,
        "Eccentricity": 0.0,
        "Inclination(deg)": 53.0,
        "Latitude(deg)": -20.63069665887277,
        "Longitude(deg)": -149.02276355838282,
        "Mean Anomaly(deg)": -25.964134175926937,
        "RAAN(deg)": 329.9673174851192,
        "Satellite Name": "Starlink Shell 1 1470",
        "Satellite Number": 1470,
        "Semi-Major Axis(m)": 6931778.249405717,
        "Time(s)": 630
    },
    {
        "Altitude(m)": 558942.2908946022,
        "Argument of Periapsis(deg)": 0.02230902268871916,
        "Eccentricity": 0.0,
        "Inclination(deg)": 53.0,
        "Latitude(deg)": -20.14781566172564,
        "Longitude(deg)": -148.6362007327145,
        "Mean Anomaly(deg)": -25.33730297237014,
        "RAAN(deg)": 329.9667987150417,
        "Satellite Name": "Starlink Shell 1 1470",
        "Satellite Number": 1470,
        "Semi-Major Axis(m)": 6931778.249405717,
        "Time(s)": 640
    },
    {
        "Altitude(m)": 558785.1244361835,
        "Argument of Periapsis(deg)": 0.022657601168230398,
        "Eccentricity": 0.0,
        "Inclination(deg)": 53.0,
        "Latitude(deg)": -19.663860990123663,
        "Longitude(deg)": -148.25224800858265,
        "Mean Anomaly(deg)": -24.710471768813544,
        "RAAN(deg)": 329.9662799449643,
        "Satellite Name": "Starlink Shell 1 1470",
        "Satellite Number": 1470,
        "Semi-Major Axis(m)": 6931778.249405717,
        "Time(s)": 650
    },
    {
        "Altitude(m)": 558629.4608203882,
        "Argument of Periapsis(deg)": 0.023006179647741636,
        "Eccentricity": 0.0,
        "Inclination(deg)": 53.0,
        "Latitude(deg)": -19.178865937440523,
        "Longitude(deg)": -147.8708274375593,
        "Mean Anomaly(deg)": -24.08364056525685,
        "RAAN(deg)": 329.9657611748868,
        "Satellite Name": "Starlink Shell 1 1470",
        "Satellite Number": 1470,
        "Semi-Major Axis(m)": 6931778.249405717,
        "Time(s)": 660
    },
    {
        "Altitude(m)": 558475.3535939204,
        "Argument of Periapsis(deg)": 0.023354758127252868,
        "Eccentricity": 0.0,
        "Inclination(deg)": 53.0,
        "Latitude(deg)": -18.692863222312525,
        "Longitude(deg)": -147.4918615867694,
        "Mean Anomaly(deg)": -23.4568093617,
        "RAAN(deg)": 329.9652424048093,
        "Satellite Name": "Starlink Shell 1 1470",
        "Satellite Number": 1470,
        "Semi-Major Axis(m)": 6931778.249405717,
        "Time(s)": 670
    },
    {
        "Altitude(m)": 558322.8554608036,
        "Argument of Periapsis(deg)": 0.023703336606764106,
        "Eccentricity": 0.0,
        "Inclination(deg)": 53.0,
        "Latitude(deg)": -18.205885009108687,
        "Longitude(deg)": -147.11527452260333,
        "Mean Anomaly(deg)": -22.829978158143355,
        "RAAN(deg)": 329.96472363473185,
        "Satellite Name": "Starlink Shell 1 1470",
        "Satellite Number": 1470,
        "Semi-Major Axis(m)": 6931778.249405717,
        "Time(s)": 680
    },
    {
        "Altitude(m)": 558172.0182589778,
        "Argument of Periapsis(deg)": 0.024051915086275345,
        "Eccentricity": 0.0,
        "Inclination(deg)": 53.0,
        "Latitude(deg)": -17.717962927951287,
        "Longitude(deg)": -146.74099128117763,
        "Mean Anomaly(deg)": -22.20314695458666,
        "RAAN(deg)": 329.96420486465433,
        "Satellite Name": "Starlink Shell 1 1470",
        "Satellite Number": 1470,
        "Semi-Major Axis(m)": 6931778.249405717,
        "Time(s)": 690
    },
    {
        "Altitude(m)": 558022.8929373198,
        "Argument of Periapsis(deg)": 0.024400493565786583,
        "Eccentricity": 0.0,
        "Inclination(deg)": 53.0,
        "Latitude(deg)": -17.229128094298396,
        "Longitude(deg)": -146.3689373384737,
        "Mean Anomaly(deg)": -21.576315751029913,
        "RAAN(deg)": 329.9636860945769,
        "Satellite Name": "Starlink Shell 1 1470",
        "Satellite Number": 1470,
        "Semi-Major Axis(m)": 6931778.249405717,
        "Time(s)": 700
    },
    {
        "Altitude(m)": 557875.5295331157,
        "Argument of Periapsis(deg)": 0.024749072045297815,
        "Eccentricity": 0.0,
        "Inclination(deg)": 53.0,
        "Latitude(deg)": -16.739411128093828,
        "Longitude(deg)": -145.99903959307827,
        "Mean Anomaly(deg)": -20.949484547473165,
        "RAAN(deg)": 329.96316732449947,
        "Satellite Name": "Starlink Shell 1 1470",
        "Satellite Number": 1470,
        "Semi-Major Axis(m)": 6931778.249405717,
        "Time(s)": 710
    },
    {
        "Altitude(m)": 557729.9771499432,
        "Argument of Periapsis(deg)": 0.025097650524809053,
        "Eccentricity": 0.0,
        "Inclination(deg)": 53.0,
        "Latitude(deg)": -16.248842172501785,
        "Longitude(deg)": -145.63122583582256,
        "Mean Anomaly(deg)": -20.322653343916524,
        "RAAN(deg)": 329.96264855442195,
        "Satellite Name": "Starlink Shell 1 1470",
        "Satellite Number": 1470,
        "Semi-Major Axis(m)": 6931778.249405717,
        "Time(s)": 720
    },
    {
        "Altitude(m)": 557586.2839360263,
        "Argument of Periapsis(deg)": 0.02544622900432029,
        "Eccentricity": 0.0,
        "Inclination(deg)": 53.0,
        "Latitude(deg)": -15.757450912235464,
        "Longitude(deg)": -145.26542421923642,
        "Mean Anomaly(deg)": -19.695822140359827,
        "RAAN(deg)": 329.9621297843444,
        "Satellite Name": "Starlink Shell 1 1470",
        "Satellite Number": 1470,
        "Semi-Major Axis(m)": 6931778.249405717,
        "Time(s)": 730
    },
    {
        "Altitude(m)": 557444.4970630544,
        "Argument of Periapsis(deg)": 0.02579480748383153,
        "Eccentricity": 0.0,
        "Inclination(deg)": 53.0,
        "Latitude(deg)": -15.265266591488578,
        "Longitude(deg)": -144.90156423972834,
        "Mean Anomaly(deg)": -19.06899093680308,
        "RAAN(deg)": 329.961611014267,
        "Satellite Name": "Starlink Shell 1 1470",
        "Satellite Number": 1470,
        "Semi-Major Axis(m)": 6931778.249405717,
        "Time(s)": 740
    },
    {
        "Altitude(m)": 557304.6627054742,
        "Argument of Periapsis(deg)": 0.026143385963342765,
        "Eccentricity": 0.0,
        "Inclination(deg)": 53.0,
        "Latitude(deg)": -14.772318031486837,
        "Longitude(deg)": -144.53957620677693,
        "Mean Anomaly(deg)": -18.442159733246335,
        "RAAN(deg)": 329.96109224418956,
        "Satellite Name": "Starlink Shell 1 1470",
        "Satellite Number": 1470,
        "Semi-Major Axis(m)": 6931778.249405717,
        "Time(s)": 750
    }
]